NORAD_CAT_ID,OBJECT_NAME,OBJECT_TYPE,EPOCH,MEAN_MOTION,ECCENTRICITY,INCLINATION,RA_OF_ASC_NODE,ARG_OF_PERICENTER,MEAN_ANOMALY,BSTAR,MEAN_MOTION_DOT,MEAN_MOTION_DDOT,TLE_LINE0,TLE_LINE1,TLE_LINE2,SEMIMAJOR_AXIS,PERIOD,APOGEE,PERIGEE,DECAYED
49410.0,STARLINK-3147,PAYLOAD,2022-11-17 05:38:59,15.08842769,0.0002952,53.2155,254.0915,26.6006,333.5137,9.8171e-05,1.274e-05,0.0,0 STARLINK-3147,1 49410U 21104C   22321.23541035  .00001274  00000-0  98171-4 0  9993,2 49410  53.2155 254.0915 0002952  26.6006 333.5137 15.08842769 56191,6917.871999999999,95.437,541.779,537.695,0.0
49410.0,STARLINK-3147,PAYLOAD,2022-11-17 23:08:14,15.08833384,0.0002956,53.2161,250.8195,27.0713,333.0433,3.7587e-05,3.1e-06,0.0,0 STARLINK-3147,1 49410U 21104C   22321.96405632  .00000310  00000-0  37587-4 0  9999,2 49410  53.2161 250.8195 0002956  27.0713 333.0433 15.08833384 57385,6917.901,95.438,541.811,537.721,0.0
49410.0,STARLINK-3147,PAYLOAD,2022-11-18 11:51:18,15.08847119,0.0002934,53.2162,248.4402,26.8672,333.2472,0.00013673,1.889e-05,0.0,0 STARLINK-3147,1 49410U 21104C   22322.49396922  .00001889  00000-0  13673-3 0  9990,2 49410  53.2162 248.4402 0002934  26.8672 333.2472 15.08847119 57462,6917.859,95.437,541.753,537.694,0.0
49410.0,STARLINK-3147,PAYLOAD,2022-11-18 19:48:14,15.08840197,0.0002969,53.2162,246.9564,31.5261,328.5908,4.579600000000002e-05,4.4e-06,0.0,0 STARLINK-3147,1 49410U 21104C   22322.82517247  .00000440  00000-0  45796-4 0  9996,2 49410  53.2162 246.9564 0002969  31.5261 328.5908 15.08840197 56435,6917.88,95.438,541.799,537.691,0.0
49410.0,STARLINK-3147,PAYLOAD,2022-11-19 03:45:10,15.08837921,0.0002823,53.2163,245.4712,33.0531,327.0638,6.0484e-05,6.74e-06,0.0,0 STARLINK-3147,1 49410U 21104C   22323.15637601  .00000674  00000-0  60484-4 0  9990,2 49410  53.2163 245.4712 0002823  33.0531 327.0638 15.08837921 57561,6917.887,95.438,541.705,537.799,0.0
49410.0,STARLINK-3147,PAYLOAD,2022-11-19 05:20:34,15.08836016,0.0003085,53.2172,245.1695,28.7578,331.3583,8.795600000000001e-05,1.111e-05,0.0,0 STARLINK-3147,1 49410U 21104C   22323.22261850  .00001111  00000-0  87956-4 0  9997,2 49410  53.2172 245.1695 0003085  28.7578 331.3583 15.08836016 56493,6917.893,95.438,541.8919999999998,537.623,0.0
49410.0,STARLINK-3147,PAYLOAD,2022-11-19 19:39:02,15.08841055,0.0002953,53.2168,242.4942,26.9804,333.1341,7.937e-05,9.75e-06,0.0,0 STARLINK-3147,1 49410U 21104C   22323.81877577  .00000975  00000-0  79370-4 0  9999,2 49410  53.2168 242.4942 0002953  26.9804 333.1341 15.08841055 56589,6917.877,95.437,541.785,537.6990000000002,0.0
49410.0,STARLINK-3147,PAYLOAD,2022-11-20 05:11:22,15.08826327,0.0002825,53.2165,240.7099,24.4878,335.6248,-4.355e-05,-9.81e-06,0.0,0 STARLINK-3147,1 49410U 21104C   22324.21623042 -.00000981  00000-0 -43550-4 0  9990,2 49410  53.2165 240.7099 0002825  24.4878 335.6248 15.08826327 57727,6917.922,95.438,541.741,537.8330000000002,0.0
49410.0,STARLINK-3147,PAYLOAD,2022-11-20 11:32:54,15.088297099999998,0.0002775,53.2161,239.5218,24.604,335.5084,-2.4217e-05,-6.74e-06,0.0,0 STARLINK-3147,1 49410U 21104C   22324.48118935 -.00000674  00000-0 -24217-4 0  9997,2 49410  53.2161 239.5218 0002775  24.6040 335.5084 15.08829710 56689,6917.9119999999975,95.438,541.697,537.857,0.0
49410.0,STARLINK-3147,PAYLOAD,2022-11-20 19:29:50,15.08828798,0.000292,53.2157,238.0337,23.8049,336.3078,4.2951e-05,3.95e-06,0.0,0 STARLINK-3147,1 49410U 21104C   22324.81238644  .00000395  00000-0  42951-4 0  9997,2 49410  53.2157 238.0337 0002920  23.8049 336.3078 15.08828798 57815,6917.915,95.438,541.8,537.76,0.0
49410.0,STARLINK-3147,PAYLOAD,2022-11-21 03:26:45,15.08837658,0.0002992,53.216,236.5466,26.2705,333.8439,0.00014424,2.008e-05,0.0,0 STARLINK-3147,1 49410U 21104C   22325.14358460  .00002008  00000-0  14424-3 0  9999,2 49410  53.2160 236.5466 0002992  26.2705 333.8439 15.08837658 57863,6917.888000000001,95.438,541.822,537.683,0.0
49410.0,STARLINK-3147,PAYLOAD,2022-11-21 11:23:41,15.08835824,0.0003011,53.2159,235.06,26.0335,334.0808,0.00019806,2.865e-05,0.0,0 STARLINK-3147,1 49410U 21104C   22325.47478820  .00002865  00000-0  19806-3 0  9998,2 49410  53.2159 235.0600 0003011  26.0335 334.0808 15.08835824 56837,6917.893,95.438,541.841,537.675,0.0
49410.0,STARLINK-3147,PAYLOAD,2022-11-22 03:17:33,15.08837487,0.0003046,53.2156,232.0861,26.8872,333.2277,0.00031743,4.767e-05,0.0,0 STARLINK-3147,1 49410U 21104C   22326.13719256  .00004767  00000-0  31743-3 0  9990,2 49410  53.2156 232.0861 0003046  26.8872 333.2277 15.08837487 58012,6917.888000000001,95.438,541.86,537.646,0.0
49410.0,STARLINK-3147,PAYLOAD,2022-11-22 11:14:28,15.08849286,0.0003007,53.2155,230.5995,27.91,332.2053,0.00045101,6.899e-05,0.0,0 STARLINK-3147,1 49410U 21104C   22326.46838842  .00006899  00000-0  45101-3 0  9990,2 49410  53.2155 230.5995 0003007  27.9100 332.2053 15.08849286 56980,6917.852,95.437,541.797,537.637,0.0
49410.0,STARLINK-3147,PAYLOAD,2022-11-23 03:08:19,15.08848613,0.0002959,53.2158,227.6259,29.0699,331.0457,0.00024062,3.544e-05,0.0,0 STARLINK-3147,1 49410U 21104C   22327.13078571  .00003544  00000-0  24062-3 0  9997,2 49410  53.2158 227.6259 0002959  29.0699 331.0457 15.08848613 58164,6917.854,95.437,541.766,537.672,0.0
49410.0,STARLINK-3147,PAYLOAD,2022-11-23 17:26:47,15.08848717,0.0002869,53.2156,224.9493,29.2689,330.8464,0.0002088,3.037e-05,0.0,0 STARLINK-3147,1 49410U 21104C   22327.72694378  .00003037  00000-0  20880-3 0  9992,2 49410  53.2156 224.9493 0002869  29.2689 330.8464 15.08848717 57173,6917.854,95.437,541.703,537.734,0.0
49410.0,STARLINK-3147,PAYLOAD,2022-11-24 02:59:06,15.08845855,0.0002867,53.216,223.1646,30.2435,329.8722,4.5967e-05,4.43e-06,0.0,0 STARLINK-3147,1 49410U 21104C   22328.12438344  .00000443  00000-0  45967-4 0  9998,2 49410  53.2160 223.1646 0002867  30.2435 329.8722 15.08845855 58310,6917.861999999999,95.437,541.711,537.744,0.0
49410.0,STARLINK-3147,PAYLOAD,2022-11-24 20:28:21,15.08845452,0.0002917,53.2156,219.8936,31.0959,329.0206,5.6969e-05,6.18e-06,0.0,0 STARLINK-3147,1 49410U 21104C   22328.85302145  .00000618  00000-0  56969-4 0  9995,2 49410  53.2156 219.8936 0002917  31.0959 329.0206 15.08845452 57349,6917.864000000001,95.437,541.747,537.711,0.0
49410.0,STARLINK-3147,PAYLOAD,2022-11-25 02:49:54,15.08838832,0.0003046,53.2163,218.7046,29.2022,330.914,4.1506e-06,-2.23e-06,0.0,0 STARLINK-3147,1 49410U 21104C   22329.11798631 -.00000223  00000-0  41506-5 0  9999,2 49410  53.2163 218.7046 0003046  29.2022 330.9140 15.08838832 58467,6917.884,95.438,541.856,537.6419999999998,0.0
49410.0,STARLINK-3147,PAYLOAD,2022-11-25 17:08:21,15.08844562,0.0003053,53.2162,216.0285,28.8771,331.2390000000001,0.00010763,1.425e-05,0.0,0 STARLINK-3147,1 49410U 21104C   22329.71413896  .00001425  00000-0  10763-3 0  9995,2 49410  53.2162 216.0285 0003053  28.8771 331.2390 15.08844562 58554,6917.866,95.437,541.8430000000002,537.619,0.0
49410.0,STARLINK-3147,PAYLOAD,2022-11-26 02:40:39,15.08854206,0.0003095,53.2163,214.2443,30.7058,329.4115,0.00019631,2.838e-05,0.0,0 STARLINK-3147,1 49410U 21104C   22330.11157121  .00002838  00000-0  19631-3 0  9999,2 49410  53.2163 214.2443 0003095  30.7058 329.4115 15.08854206 58614,6917.837,95.437,541.8430000000002,537.561,0.0
49410.0,STARLINK-3147,PAYLOAD,2022-11-26 09:02:12,15.08848811,0.0003167,53.2152,213.055,31.2832,328.8348,0.00011854,1.599e-05,0.0,0 STARLINK-3147,1 49410U 21104C   22330.37653486  .00001599  00000-0  11854-3 0  9994,2 49410  53.2152 213.0550 0003167  31.2832 328.8348 15.08848811 58654,6917.853,95.437,541.909,537.528,0.0
49410.0,STARLINK-3147,PAYLOAD,2022-11-26 23:20:41,15.08836329,0.0003029,53.2149,210.3792,32.7079,327.4101,-1.2415e-05,-4.86e-06,0.0,0 STARLINK-3147,1 49410U 21104C   22330.97269970 -.00000486  00000-0 -12415-4 0  9992,2 49410  53.2149 210.3792 0003029  32.7079 327.4101 15.08836329 58747,6917.892,95.438,541.852,537.661,0.0
49410.0,STARLINK-3147,PAYLOAD,2022-11-27 15:14:32,15.08846193,0.0003015,53.2148,207.4053,34.3725,325.7462,5.371600000000001e-05,5.67e-06,0.0,0 STARLINK-3147,1 49410U 21104C   22331.63509263  .00000567  00000-0  53716-4 0  9995,2 49410  53.2148 207.4053 0003015  34.3725 325.7462 15.08846193 58846,6917.861,95.437,541.812,537.641,0.0
49410.0,STARLINK-3147,PAYLOAD,2022-11-27 20:00:41,15.08838509,0.0002985,53.2152,206.5126,33.0779,327.0399,-0.00012042,-2.205e-05,0.0,0 STARLINK-3147,1 49410U 21104C   22331.83381677 -.00002205  00000-0 -12042-3 0  9993,2 49410  53.2152 206.5126 0002985  33.0779 327.0399 15.08838509 57791,6917.885,95.438,541.815,537.685,0.0
49410.0,STARLINK-3147,PAYLOAD,2022-11-28 00:46:51,15.08835605,0.000321,53.2154,205.6208,32.5328,327.5862,-0.00013169,-2.384e-05,0.0,0 STARLINK-3147,1 49410U 21104C   22332.03253950 -.00002384  00000-0 -13169-3 0  9997,2 49410  53.2154 205.6208 0003210  32.5328 327.5862 15.08835605 58908,6917.894,95.438,541.979,537.538,0.0
49410.0,STARLINK-3147,PAYLOAD,2022-11-28 08:43:46,15.08839986,0.0003197,53.2155,204.1339,32.9879,327.1313,-4.352e-05,-9.81e-06,0.0,0 STARLINK-3147,1 49410U 21104C   22332.36373784 -.00000981  00000-0 -43520-4 0  9997,2 49410  53.2155 204.1339 0003197  32.9879 327.1313 15.08839986 57875,6917.88,95.438,541.957,537.534,0.0
49410.0,STARLINK-3147,PAYLOAD,2022-11-29 00:37:38,15.08843972,0.000319,53.2152,201.1597,33.4366,326.6827,0.00012788,1.747e-05,0.0,0 STARLINK-3147,1 49410U 21104C   22333.02613668  .00001747  00000-0  12788-3 0  9999,2 49410  53.2152 201.1597 0003190  33.4366 326.6827 15.08843972 59051,6917.868,95.437,541.94,537.526,0.0
49410.0,STARLINK-3147,PAYLOAD,2022-11-29 08:34:33,15.08849027,0.0003179,53.2153,199.6732,34.2131,325.9066,0.00018631,2.679e-05,0.0,0 STARLINK-3147,1 49410U 21104C   22333.35733362  .00002679  00000-0  18631-3 0  9997,2 49410  53.2153 199.6732 0003179  34.2131 325.9066 15.08849027 58020,6917.853,95.437,541.9169999999998,537.519,0.0
